KUIPER-00104            
1 65142U 25171L   25274.86069163  .00081916  00000+0  22250-2 0  9990
2 65142  51.8764 157.0332 0003252 322.4334  37.6424 15.36857018  9138
KUIPER-00105            
1 65143U 25171M   25274.91670139 -.00785336  00000+0 -28120-1 0  9998
2 65143  51.8791 156.7124 0006969 304.4766  12.1282 15.30636475  5526
KUIPER-00106            
1 65144U 25171N   25274.91670139 -.01204852  00000+0 -60363-1 0  9994
2 65144  51.8843 157.7713 0005995 300.6260 188.7988 15.19814953  5524
KUIPER-00107            
1 65145U 25171P   25274.92173082  .00066080  00000+0  17937-2 0  9997
2 65145  51.8759 156.6941 0004159 319.3880  40.6796 15.36973717  9157
KUIPER-00108            
1 65146U 25171Q   25274.93556771  .00095105  00000+0  25932-2 0  9993
2 65146  51.8773 156.7842 0004443 331.9421  28.1325 15.36658876  9157
KUIPER-00109            
1 65147U 25171R   25274.91511018  .00065872  00000+0  17732-2 0  9994
2 65147  51.8751 156.6440 0004642 299.0170  61.0351 15.37232710  9143
KUIPER-00110            
1 65148U 25171S   25274.91670139 -.00639194  00000+0 -26767-1 0  9998
2 65148  51.8792 157.1785 0007263 318.0509 122.0606 15.25434669  5508
KUIPER-00111            
1 65149U 25171T   25274.91670139  .00014754  00000+0  79887-3 0  9999
2 65149  51.8836 158.4977 0005841 321.5821 227.3236 15.14816909  5867
